#dP2023 12 28  0  0  0.00000000      97 __u+U IGS20 FIT  IAC
## 2294 345600.00000000   900.00000000 60306 0.0000000000000
+  117   C06C07C09C10C11C12C13C14C16C19C20C21C22C23C24C25C26
+        C27C28C29C30C32C33C34C35C36C37C38C39C41C42C43C44C45
+        C46E02E03E04E05E07E08E09E10E11E12E13E14E15E18E19E21
+        E24E25E26E27E30E31E33E34E36G01G02G03G04G05G06G07G08
+        G09G10G11G12G13G14G15G16G17G18G19G20G21G22G23G24G25
+        G26G27G28G29G30G31G32J02J03J04R01R02R03R04R05R07R08
+        R09R11R12R13R14R15R16R17R18R19R20R21R22R24R25  0  0
++         7  7  7  7  7  6  7  7  7  6  6  6  6  5  5  5  5
++         6  5  6  6  6  6  6  5  6  6  6  6  5  6  6  6  6
++         6  4  4  4  4  4  4  4  4  4  4  4  4  4  4  4  4
++         4  4  4  4  4  4  4  4  4  3  3  3  3  4  3  3  4
++         3  3  3  3  3  3  3  4  3  3  3  3  3  3  3  3  3
++         4  4  4  3  3  3  3  9  9  9  7  7  7  7  6  6  6
++         6  7  7  8  7  7  6  7  6  7  8  7  7  7  8  0  0
%c M  cc GPS ccc cccc cccc cccc cccc ccccc ccccc ccccc ccccc
%c cc cc ccc ccc cccc cccc cccc cccc ccccc ccccc ccccc ccccc
%f  1.2500000  1.025000000  0.00000000000  0.000000000000000
%f  0.0000000  0.000000000  0.00000000000  0.000000000000000
%i    0    0    0    0      0      0      0      0         0
%i    0    0    0    0      0      0      0      0         0
/* INFORMATION & ANALYSIS CENTER (IAC)            FINAL DATA
/* S/V CLOCKS ARE ALIGNED TO GNSS TIME                      
/* G:C1WC2W R:C1PC2P E:C1XC5X C:C2IC6I J:C1CC2S             
/* PCV:IGS20_2290 OL/AL:FES2004  NONE     YN ORB:CoN CLK:CoN
*  2023 12 29  0  0  0.00000000
PC06  -3874.229480  37370.520155  19450.905605    232.619705
PC07  -8902.738014  26445.178527 -31564.278328   -549.076413
PC09   2624.857500  41332.652777   9881.706548   -279.153393
PC10  -1717.513626  27237.463382 -31788.872530    -71.393541
PC11  -3305.781490  19366.354011 -19737.757468    330.078932
PC12 -16409.788922   2099.603903 -22427.189357    812.232879
PC13 -12044.509984  34306.885113  21281.716225    401.264081
PC14 -12764.352413  14622.885944  20081.505436   -150.758540
PC16  -4308.284796  36789.234123  20699.071553   -251.173687
PC19   1892.011941 -15697.336061 -22971.343911   -945.374379
PC20  20117.957887 -11803.927510 -15293.253626    -13.828380
PC21 -27810.122880    340.076289  -2397.437276   -965.767323
PC22 -18491.565125 -10827.578674 -17891.311913   -168.714822
PC23   7886.887021  17422.399068 -20324.701015   -797.198994
PC24 -17299.694497  19591.666164   9716.332680    737.202351
PC25  -5505.772388  26131.913734  -8071.635202    288.915897
PC26 -17996.678149   2785.636664  21113.855417   -226.845963
PC27  19864.302827   6571.408520  18455.640349    248.864278
PC28  18077.526774  20619.365413   5186.843630    188.523285
PC29  -5245.515290 -23705.681461  13754.592036    220.777595
PC30  11238.799003 -11668.508887  22716.629155    -11.955389
PC32  27783.817874   -465.779548   2541.241314   -547.436462
PC33  -1943.168536  15751.793506  22956.077429   -941.904003
PC34 -10110.653127  13078.185951 -22493.021623    335.099973
PC35 -18843.074329 -19895.572088  -5178.446004    470.044415
PC36   6671.312296 -26077.784595   7404.185292    -74.319782
PC37  17928.561108  -1791.167197 -21314.709377   -931.406195
PC38 -21992.946547  34841.846618   8607.679276    127.011401
PC39  -6821.289486  32929.590858  25607.336307     -6.353736
PC41  17789.695897  11189.151911  18408.299311   -875.912327
PC42 -21342.878437  11214.817057  14113.124843   -473.593804
PC43   4390.914876  23510.661146 -14402.239878     54.189003
PC44 -20230.822162  -5869.949298 -18296.692683    337.028870
PC45  -8030.219976 -17068.089108  20563.805615    -58.776374
PC46  16984.134832 -20327.275002  -8863.734183   -111.213328
PE02   5996.683031 -20189.029006  20800.296114     90.479987
PE03  -5752.616335 -20007.475639 -21052.450780    -83.278836
PE04  22914.423690  17667.634671   6253.987370   -290.829822
PE05  14567.873824 -10689.533190 -23447.457526   4705.000047
PE07 -26628.380385  -5287.363972  11801.824516    -95.495248
PE08 -22575.072541 -17877.185359  -6870.131746   -199.410223
PE09  26620.889533   5423.881588 -11744.199385   -279.678190
PE10  14855.662067  11758.862685  22742.563197   -589.913847
PE11  16071.218607   -487.546634  24850.777877   3277.610625
PE12  11606.784178  20960.390611  17397.801008   -838.907413
PE13 -16000.679329   -324.111889 -24888.716295    -19.775821
PE14 -16706.957103 -21382.256202  11073.699935     -5.133547
PE15 -11334.222402 -21379.850950 -17029.629643    -77.195057
PE18   3786.343928  20523.177952 -18016.343307    147.847879
PE19   3225.619882  19353.377335  22167.815208   -922.260253
PE21 -22222.302863  18442.868103  -6482.474603   -571.144355
PE24  26247.106366  -5356.880387 -12642.331778   -511.576610
PE25  22465.252900 -18289.595474   6110.878799     -1.302713
PE26 -11057.623899  21128.489470 -17521.784585    323.228090
PE27 -26291.221212   5827.304610  12267.137552   -235.665019
PE30 -14540.124803 -10371.055623  23587.532322   -779.695515
PE31  14830.538991  10060.566572 -23558.668628    -12.628671
PE33   -256.294886  29570.132329  -1235.033292      5.016247
PE34   -153.946417 -29596.848110    679.491331    -85.929788
PE36  11249.661066 -20560.801350  18085.432113   -164.162003
PG01  12830.499068 -11767.691256  19604.756034    164.789563
PG02  14823.539896  -4465.024048  22072.409427   -508.934475
PG03  23618.633865 -11369.433741   3742.044194     87.864099
PG04  19349.202658  -3039.734719 -17989.520965    251.765439
PG05 -22099.162802   2714.056538 -14729.227986   -155.883023
PG06  -6695.552550 -23674.620286  -9799.412709    463.272632
PG07   5856.357588 -23885.024891  -8909.058934    -23.613702
PG08  23974.785179   3157.183936  11365.780189   -159.331462
PG09   8706.364912 -12708.148825 -21726.906903     41.310546
PG10   -397.129277  16560.282196  20880.946510    -67.146565
PG11 -12041.116571 -15397.798699 -17979.529169   -519.028039
PG12 -24348.489737   9771.673370   3598.107109   -462.251088
PG13 -22682.641020 -13342.432227   4173.958972    610.384262
PG14   4532.619008 -18165.738608  18792.438688    283.665609
PG15 -24262.204460   -636.157018  10539.900705    111.628608
PG16  19165.599044   4726.390602 -18309.513905   -395.174335
PG17  -4963.305987 -18375.722889  18895.694593    721.110337
PG18  -5388.882368  24608.443880  -8100.154279   -518.338295
PG19 -13892.558840 -19438.917322  11779.031969    418.913104
PG20 -13897.040306  -7852.921961 -21147.653611    394.305359
PG21  15588.910049   1033.357121  22038.316772    140.142345
PG22  -2670.394765 -15596.799260  21802.492905     57.828047
PG23 -12849.686693  18987.927546  13263.880816    124.730486
PG24 -15220.171564   3778.019152  21007.784874   -403.002079
PG25 -18695.785293  17502.772981  -6806.056862    483.258263
PG26  11668.577811  11087.005875 -21293.249152    205.298148
PG27  23280.566383  13252.616756   -888.199544    -88.504548
PG28   6239.681166  24885.694429  -6900.927963    -82.767054
PG29 -10513.480445  10898.941352 -21873.181908   -609.352213
PG30  -1154.363692 -26377.962455    888.941556   -452.040866
PG31  10555.745844  19252.038606 -14856.175377   -226.946799
PG32   9882.243607  18464.799494  16646.902889   -600.568387
PJ02 -36378.449640  19345.933106  -4427.693041     -0.819079
PJ03 -17983.805640  28935.232145 -20276.210182    -13.968259
PJ04 -27409.548732  29141.068432  19475.862877     75.327059
PR01  -3272.853238  10675.426318  22934.917687     73.243654
PR02  15316.114659  10177.030257  17756.698215    -22.349798
PR03  25140.571983   3883.143411   2351.266708     91.806438
PR04  20921.584067  -4041.701701 -14009.997982    217.305698
PR05   5542.684470  -9961.877227 -22811.733931    124.556920
PR07 -25206.638420  -3445.034113  -1342.292575     72.378385
PR08 -20686.335456   4433.138062  14279.735398    -73.863575
PR09  -3296.019087 -13775.316449  21208.881596    161.338349
PR11 -17251.731399  15618.731285  10467.615625   -224.061181
PR12 -10423.704278  21554.437453  -8755.909186     34.995018
PR13   1118.442009  15368.387754 -20345.771334    -42.731421
PR14  13974.049111  -1794.270293 -21254.954330     25.855645
PR15  17302.058891 -16383.308291  -9089.473267     83.575171
PR16  10506.344314 -21605.584976   8530.040802     21.987030
PR17  13821.318536  10392.179859  18750.857833     47.551399
PR18   8677.384433  -6320.257075  23158.520025    119.264623
PR19    692.425941 -19132.552289  16865.294302   -260.007029
PR20 -10201.360938 -23186.920904  -2790.430766   -105.913923
PR21 -13633.834240 -10125.667549 -19035.296475    -64.601473
PR22  -8718.523332   7321.034793 -22795.856926    100.519051
PR24  11423.803050  22546.122483   3411.720877    -37.745795
PR25 -13603.479399 -10873.834573 -18635.804775      7.438548
EOF
